O3B MPOWER F1           
1 54755U 22174A   24284.52484282 -.00000016  00000+0  00000+0 0  9993
2 54755   0.0516 345.8398 0006454 204.2699 252.6124  5.00113470 34618
